{
    "links": {
        "self": "http://www.neowsapp.com/rest/v1/neo/3555018?api_key=iIulBulltgU6a56xZRHN4H3l9WmuAYTsLGpBGhQ2"
    },
    "id": "3555018",
    "neo_reference_id": "3555018",
    "name": "(2011 AF3)",
    "designation": "2011 AF3",
    "nasa_jpl_url": "http://ssd.jpl.nasa.gov/sbdb.cgi?sstr=3555018",
    "absolute_magnitude_h": 25.0,
    "estimated_diameter": {
        "kilometers": {
            "estimated_diameter_min": 0.02658,
            "estimated_diameter_max": 0.0594346868
        },
        "meters": {
            "estimated_diameter_min": 26.58,
            "estimated_diameter_max": 59.4346868419
        },
        "miles": {
            "estimated_diameter_min": 0.0165160412,
            "estimated_diameter_max": 0.0369309908
        },
        "feet": {
            "estimated_diameter_min": 87.2047272,
            "estimated_diameter_max": 194.9956979785
        }
    },
    "is_potentially_hazardous_asteroid": false,
    "close_approach_data": [
        {
            "close_approach_date": "2011-01-07",
            "close_approach_date_full": "2011-Jan-07 06:46",
            "epoch_date_close_approach": 1294382760000,
            "relative_velocity": {
                "kilometers_per_second": "27.0795886025",
                "kilometers_per_hour": "97486.5189688783",
                "miles_per_hour": "60574.3317448566"
            },
            "miss_distance": {
                "astronomical": "0.0141209416",
                "lunar": "5.4930462824",
                "kilometers": "2112462.785754392",
                "miles": "1312623.5079069296"
            },
            "orbiting_body": "Earth"
        }
    ],
    "orbital_data": {
        "orbit_id": "7",
        "orbit_determination_date": "2019-11-02 08:14:22",
        "first_observation_date": "2011-01-02",
        "last_observation_date": "2011-01-04",
        "data_arc_in_days": 2,
        "observations_used": 19,
        "orbit_uncertainty": "9",
        "minimum_orbit_intersection": ".0118319",
        "jupiter_tisserand_invariant": "3.016",
        "epoch_osculation": "2455564.5",
        "eccentricity": ".8169518288405002",
        "semi_major_axis": "2.307085211030071",
        "inclination": "7.823540574770643",
        "ascending_node_longitude": "101.1067940622864",
        "orbital_period": "1279.952579031277",
        "perihelion_distance": ".4223077285881832",
        "perihelion_argument": "110.7023575763543",
        "aphelion_distance": "4.191862693471959",
        "perihelion_time": "2455611.851520653255",
        "mean_anomaly": "346.6818914118886",
        "mean_motion": ".2812604200324855",
        "equinox": "J2000",
        "orbit_class": {
            "orbit_class_type": "APO",
            "orbit_class_description": "Near-Earth asteroid orbits which cross the Earth’s orbit similar to that of 1862 Apollo",
            "orbit_class_range": "a (semi-major axis) > 1.0 AU; q (perihelion) < 1.017 AU"
        }
    },
    "is_sentry_object": false
}